HAWK-A                  
1 43765U 18099H   26068.67628545  .00008617  00000+0  36104-3 0  9995
2 43765  97.4051 122.2425 0034260 275.5523  84.1807 15.23231043397949
STARLINK-31981          
1 60035U 24111V   26068.44210462  .00001455  00000+0  61219-4 0  9995
2 60035  53.1608  76.9088 0001166  80.4858 279.6274 15.30206449 98923
